     2.100          NAVIGATION                              RINEX VERSION / TYPE
fic2rin                                 11/20/2014 01:39:51 PGM / RUN BY / DATE
                                                            END OF HEADER
 9 14 11 19  6  0  0.0 -.891927629709D-05 -.761701812735D-11  .000000000000D+00
     .750000000000D+02  .994375000000D+02  .459590572364D-08 -.127812165746D+01
     .498816370964D-05  .225136056542D-03  .585056841373D-05  .515371150208D+04
     .280800000000D+06  .558793544769D-08 -.274274429376D+01  .745058059692D-07
     .959385956882D+00  .264531250000D+03 -.310416140903D+01 -.824498629392D-08
     .347514475373D-09  .100000000000D+01  .181900000000D+04  .000000000000D+00
     .340000000000D+01  .000000000000D+00  .465661287308D-09  .750000000000D+02
     .273606000000D+06  .400000000000D+01
11 14 11 19  6  0  0.0 -.537447631359D-03 -.284217094304D-11  .000000000000D+00
     .410000000000D+02 -.123750000000D+02  .638062292141D-08 -.260162425234D+01
    -.594183802605D-06  .156452722149D-01  .339001417160D-05  .515371195602D+04
     .280800000000D+06  .219792127609D-06  .111828028911D+01  .186264514923D-07
     .891349370382D+00  .274218750000D+03  .136084326287D+01 -.883179645120D-08
     .596453416107D-10  .100000000000D+01  .181900000000D+04  .000000000000D+00
     .240000000000D+01  .000000000000D+00 -.121071934700D-07  .410000000000D+02
     .273606000000D+06  .400000000000D+01
12 14 11 19  6  0  0.0  .247312244028D-03  .284217094304D-11  .000000000000D+00
     .500000000000D+02 -.540937500000D+02  .362657963303D-08 -.310213812896D+01
    -.288523733616D-05  .498691422399D-02  .117532908916D-04  .515378747559D+04
     .280800000000D+06 -.856816768646D-07 -.601641020535D+00 -.633299350739D-07
     .988965358765D+00  .164062500000D+03  .500734647048D+00 -.749995526038D-08
     .714315468392D-12  .100000000000D+01  .181900000000D+04  .000000000000D+00
     .240000000000D+01  .000000000000D+00 -.121071934700D-07  .500000000000D+02
     .273606000000D+06  .400000000000D+01
13 14 11 19  6  0  0.0 -.618700869381D-04 -.352429196937D-11  .000000000000D+00
     .870000000000D+02  .861250000000D+02  .439375444608D-08 -.127851905184D+01
     .442378222942D-05  .586733454838D-02  .491924583912D-05  .515590124321D+04
     .280800000000D+06 -.447034835815D-07 -.263069763086D+01 -.204890966415D-07
     .976155364881D+00  .297750000000D+03  .221750848699D+01 -.817998358629D-08
     .355371945525D-09  .100000000000D+01  .181900000000D+04  .000000000000D+00
     .240000000000D+01  .000000000000D+00 -.111758708954D-07  .870000000000D+02
     .273606000000D+06  .400000000000D+01
14 14 11 19  6  0  0.0  .114337541163D-03 -.363797880709D-11  .000000000000D+00
     .260000000000D+02  .925625000000D+02  .456376152756D-08 -.730413082465D-01
     .474601984024D-05  .782992551103D-02  .581704080105D-05  .515375107002D+04
     .280800000000D+06 -.931322574615D-07 -.266393021568D+01  .614672899246D-07
     .968692017659D+00  .274531250000D+03 -.196467881267D+01 -.835427656058D-08
     .361086469272D-09  .100000000000D+01  .181900000000D+04  .000000000000D+00
     .240000000000D+01  .000000000000D+00 -.931322574615D-08  .260000000000D+02
     .273606000000D+06  .400000000000D+01
16 14 11 19  6  0  0.0 -.179670751095D-03  .284217094304D-11  .000000000000D+00
     .182000000000D+03 -.644687500000D+02  .375908515241D-08  .102363677033D+01
    -.307895243168D-05  .773613888305D-02  .106096267700D-04  .515370033646D+04
     .280800000000D+06  .335276126862D-07 -.583023581272D+00  .875443220139D-07
     .989549035284D+00  .188937500000D+03  .230566315510D+00 -.764674708914D-08
    -.111433213069D-09  .100000000000D+01  .181900000000D+04  .000000000000D+00
     .340000000000D+01  .000000000000D+00 -.102445483208D-07  .182000000000D+03
     .273606000000D+06  .400000000000D+01
17 14 11 19  6  0  0.0 -.138494186103D-03 -.238742359215D-11  .000000000000D+00
     .620000000000D+02  .328437500000D+02  .459411993496D-08  .115133518059D+00
     .178255140781D-05  .972211372573D-02  .697188079357D-05  .515366912270D+04
     .280800000000D+06 -.577419996262D-07  .445766279955D+00  .147148966789D-06
     .970579533082D+00  .253000000000D+03 -.208346158426D+01 -.823641450830D-08
     .340728478423D-09  .100000000000D+01  .181900000000D+04  .000000000000D+00
     .240000000000D+01  .000000000000D+00 -.107102096081D-07  .620000000000D+02
     .273606000000D+06  .400000000000D+01
18 14 11 19  6  0  0.0  .359302852303D-03  .261479726760D-11  .000000000000D+00
     .340000000000D+02  .993750000000D+01  .506628245957D-08  .159500534178D+01
     .474974513054D-06  .154849333921D-01  .121574848890D-04  .515375014496D+04
     .280800000000D+06 -.342726707458D-06  .248238272427D+01 -.232830643654D-06
     .925522229704D+00  .126593750000D+03 -.200317274725D+01 -.834320467082D-08
    -.223580741607D-09  .100000000000D+01  .181900000000D+04  .000000000000D+00
     .240000000000D+01  .000000000000D+00 -.111758708954D-07  .340000000000D+02
     .273606000000D+06  .400000000000D+01
19 14 11 19  6  0  0.0 -.488760415465D-03 -.170530256582D-11  .000000000000D+00
     .700000000000D+02  .294062500000D+02  .456876173584D-08 -.741846853722D+00
     .154599547386D-05  .106849329313D-01  .691413879395D-05  .515366544724D+04
     .280800000000D+06  .186264514923D-06  .495987435456D+00  .102445483208D-06
     .967629384688D+00  .249531250000D+03  .512613925136D+00 -.815248244076D-08
     .353943314588D-09  .100000000000D+01  .181900000000D+04  .000000000000D+00
     .240000000000D+01  .000000000000D+00 -.149011611938D-07  .700000000000D+02
     .273606000000D+06  .400000000000D+01
20 14 11 19  6  0  0.0  .258190557361D-03  .420641299570D-11  .000000000000D+00
     .960000000000D+02  .353125000000D+01  .495984945478D-08  .211670793953D+01
     .158324837685D-06  .623551092576D-02  .110305845737D-04  .515369604492D+04
     .280800000000D+06  .800937414169D-07  .242951631591D+01 -.108033418655D-06
     .926592190433D+00  .147406250000D+03  .133400599560D+01 -.815176812529D-08
    -.226438003480D-09  .100000000000D+01  .181900000000D+04  .000000000000D+00
     .240000000000D+01  .000000000000D+00 -.838190317154D-08  .960000000000D+02
     .273606000000D+06  .400000000000D+01
21 14 11 19  6  0  0.0 -.395661219954D-03 -.204636307899D-11  .000000000000D+00
     .920000000000D+02 -.452187500000D+02  .534665128092D-08  .255936304331D+01
    -.257976353168D-05  .217601939803D-01  .515207648277D-05  .515365512848D+04
     .280800000000D+06  .201165676117D-06  .143789866911D+01 -.230967998505D-06
     .932568003052D+00  .261093750000D+03 -.197740395145D+01 -.816712590786D-08
    -.332513850537D-09  .100000000000D+01  .181900000000D+04  .000000000000D+00
     .240000000000D+01  .000000000000D+00 -.116415321827D-07  .920000000000D+02
     .273606000000D+06  .400000000000D+01
22 14 11 19  6  0  0.0  .288368668407D-03  .352429196937D-11  .000000000000D+00
     .560000000000D+02  .471875000000D+01  .512414201251D-08  .106986806546D+01
     .335276126862D-06  .730120704975D-02  .119172036648D-04  .515372486305D+04
     .280800000000D+06 -.121071934700D-06  .248393104458D+01  .000000000000D+00
     .923319066300D+00  .129906250000D+03 -.205969108482D+01 -.837499170916D-08
    -.289297764699D-09  .100000000000D+01  .181900000000D+04  .000000000000D+00
     .340000000000D+01  .000000000000D+00 -.176951289177D-07  .560000000000D+02
     .273606000000D+06  .400000000000D+01
23 14 11 19  6  0  0.0 -.683814287186D-04 -.272848410532D-11  .000000000000D+00
     .410000000000D+02  .942812500000D+02  .477234164433D-08 -.118679889542D+01
     .487640500069D-05  .966969761066D-02  .536255538464D-05  .515371037483D+04
     .280800000000D+06  .158324837685D-06 -.273240851713D+01 -.670552253723D-07
     .950456417571D+00  .266562500000D+03 -.271857517840D+01 -.831570352529D-08
     .403588239642D-09  .100000000000D+01  .181900000000D+04  .000000000000D+00
     .240000000000D+01  .000000000000D+00 -.200234353542D-07  .410000000000D+02
     .273606000000D+06  .400000000000D+01
25 14 11 19  6  0  0.0  .135777518153D-04 -.181898940355D-11  .000000000000D+00
     .210000000000D+02 -.615000000000D+02  .391730602866D-08  .242184129614D+01
    -.318512320518D-05  .378937867936D-02  .116061419249D-04  .515377012444D+04
     .280800000000D+06 -.540167093277D-07 -.646066043404D+00 -.651925802231D-07
     .977557585026D+00  .162187500000D+03  .695972270679D+00 -.765317592835D-08
    -.357157734196D-12  .100000000000D+01  .181900000000D+04  .000000000000D+00
     .240000000000D+01  .000000000000D+00  .512227416039D-08  .210000000000D+02
     .273606000000D+06  .400000000000D+01
26 14 11 19  6  0  0.0 -.127978622913D-03 -.130739863380D-10  .000000000000D+00
     .360000000000D+02  .878437500000D+02  .444661379074D-08 -.118690331266D+01
     .505335628986D-05  .213242040481D-01  .469572842121D-05  .515368540573D+04
     .280800000000D+06  .838190317154D-07 -.264020376471D+01  .486150383949D-06
     .973520235414D+00  .298812500000D+03  .129719742164D+01 -.832606109958D-08
     .311084386485D-09  .100000000000D+01  .181900000000D+04  .000000000000D+00
     .240000000000D+01  .000000000000D+00 -.651925802231D-08  .360000000000D+02
     .273606000000D+06  .400000000000D+01
27 14 11 19  6  0  0.0  .309376046062D-04  .284217094304D-11  .000000000000D+00
     .710000000000D+02  .282812500000D+02  .456733310490D-08  .930080597590D-02
     .138022005558D-05  .158483732957D-02  .773742794991D-05  .515368084717D+04
     .280800000000D+06 -.372529029846D-08  .399159276735D+00  .931322574615D-08
     .965435449370D+00  .230312500000D+03  .271743199424D+00 -.806462163815D-08
     .373944147703D-09  .100000000000D+01  .181900000000D+04  .000000000000D+00
     .340000000000D+01  .000000000000D+00  .139698386192D-08  .710000000000D+02
     .273606000000D+06  .400000000000D+01
